[{"OBJECT_NAME":"BEIDOU-3 M25 (C47)","OBJECT_ID":"2024-168B","EPOCH":"2026-03-14T01:43:46.418592","MEAN_MOTION":1.86230283,"ECCENTRICITY":0.00041585,"INCLINATION":54.5573,"RA_OF_ASC_NODE":305.5492,"ARG_OF_PERICENTER":319.4885,"MEAN_ANOMALY":168.8158,"EPHEMERIS_TYPE":0,"CLASSIFICATION_TYPE":"U","NORAD_CAT_ID":61186,"ELEMENT_SET_NO":999,"REV_AT_EPOCH":1001,"BSTAR":0,"MEAN_MOTION_DOT":-2.3e-7,"MEAN_MOTION_DDOT":0},{"OBJECT_NAME":"BEIDOU-3 M27 (C49)","OBJECT_ID":"2024-168C","EPOCH":"2026-03-13T09:59:38.522976","MEAN_MOTION":1.86230457,"ECCENTRICITY":0.00029517,"INCLINATION":54.5535,"RA_OF_ASC_NODE":305.5552,"ARG_OF_PERICENTER":22.0693,"MEAN_ANOMALY":161.6517,"EPHEMERIS_TYPE":0,"CLASSIFICATION_TYPE":"U","NORAD_CAT_ID":61187,"ELEMENT_SET_NO":999,"REV_AT_EPOCH":747,"BSTAR":0,"MEAN_MOTION_DOT":-2.7e-7,"MEAN_MOTION_DDOT":0}]
