BEIDOU-3 M25 (C47)      
1 61186U 24168B   26073.07206503 -.00000023  00000+0  00000+0 0  9998
2 61186  54.5573 305.5492 0004158 319.4885 168.8158  1.86230283 10019
BEIDOU-3 M27 (C49)      
1 61187U 24168C   26072.41641809 -.00000027  00000+0  00000+0 0  9992
2 61187  54.5535 305.5552 0002951  22.0693 161.6517  1.86230457  7477
